start=new Date('2022-02-20T00:00:00.000Z').valueOf();
sats=[{"ECCENTRICITY":"0.00016990","DECAY_DATE":null,"REV_AT_EPOCH":"7452","SEMIMAJOR_AXIS":"6925.341","SITE":"AFETR","REF_FRAME":"TEME","CLASSIFICATION_TYPE":"U","MEAN_MOTION_DDOT":"0.0000000000000","OBJECT_TYPE":"PAYLOAD","FILE":"3308986","RCS_SIZE":"LARGE","TLE_LINE2":"2 46719  53.0567  20.1832 0001699  63.4040 296.7123 15.06402477 74527","NORAD_CAT_ID":"46719","MEAN_ELEMENT_THEORY":"SGP4","GP_ID":"196428470","PERIOD":"95.592","RA_OF_ASC_NODE":"20.1832","COUNTRY_CODE":"US","TIME_SYSTEM":"UTC","LAUNCH_DATE":"2020-10-18","EPHEMERIS_TYPE":"0","MEAN_MOTION":"15.06402477","TLE_LINE1":"1 46719U 20073BB  22050.89734070  .00000999  00000-0  85948-4 0  9991","PERIAPSIS":"546.029","BSTAR":"0.00008594800000","INCLINATION":"53.0567","OBJECT_NAME":"STARLINK-1822","MEAN_ANOMALY":"296.7123","OBJECT_ID":"2020-073BB","CENTER_NAME":"EARTH","APOAPSIS":"548.383","ELEMENT_SET_NO":"999","ARG_OF_PERICENTER":"63.4040","MEAN_MOTION_DOT":"0.00000999","EPOCH":"2022-02-19T21:32:10.236480"},{"NORAD_CAT_ID":"46720","MEAN_ELEMENT_THEORY":"SGP4","PERIOD":"92.525","GP_ID":"196428724","RCS_SIZE":"LARGE","FILE":"3308986","TLE_LINE2":"2 46720  53.0556 336.2495 0001412 111.6221 248.4940 15.56334033 75139","CLASSIFICATION_TYPE":"U","REF_FRAME":"TEME","SITE":"AFETR","OBJECT_TYPE":"PAYLOAD","MEAN_MOTION_DDOT":"0.0000000000000","ECCENTRICITY":"0.00014120","DECAY_DATE":null,"SEMIMAJOR_AXIS":"6776.415","REV_AT_EPOCH":"7513","ELEMENT_SET_NO":"999","ARG_OF_PERICENTER":"111.6221","MEAN_MOTION_DOT":"0.00166483","EPOCH":"2022-02-19T19:24:30.523104","APOAPSIS":"399.236","CENTER_NAME":"EARTH","PERIAPSIS":"397.323","BSTAR":"0.00228050000000","INCLINATION":"53.0556","TLE_LINE1":"1 46720U 20073BC  22050.80868661  .00166483  00000-0  22805-2 0  9990","MEAN_MOTION":"15.56334033","OBJECT_NAME":"STARLINK-1823","OBJECT_ID":"2020-073BC","MEAN_ANOMALY":"248.4940","RA_OF_ASC_NODE":"336.2495","COUNTRY_CODE":"US","EPHEMERIS_TYPE":"0","LAUNCH_DATE":"2020-10-18","TIME_SYSTEM":"UTC"},{"REV_AT_EPOCH":"7400","SEMIMAJOR_AXIS":"6925.352","ECCENTRICITY":"0.00017540","DECAY_DATE":null,"MEAN_MOTION_DDOT":"0.0000000000000","OBJECT_TYPE":"PAYLOAD","SITE":"AFETR","CLASSIFICATION_TYPE":"U","REF_FRAME":"TEME","TLE_LINE2":"2 46722  53.0557  55.8739 0001754  60.2728 299.8435 15.06398735 74005","FILE":"3308986","RCS_SIZE":"LARGE","GP_ID":"196427475","PERIOD":"95.592","NORAD_CAT_ID":"46722","MEAN_ELEMENT_THEORY":"SGP4","LAUNCH_DATE":"2020-10-18","TIME_SYSTEM":"UTC","EPHEMERIS_TYPE":"0","RA_OF_ASC_NODE":"55.8739","COUNTRY_CODE":"US","OBJECT_NAME":"STARLINK-1825","MEAN_ANOMALY":"299.8435","OBJECT_ID":"2020-073BE","TLE_LINE1":"1 46722U 20073BE  22050.74115081  .00000720  00000-0  67207-4 0  9994","MEAN_MOTION":"15.06398735","PERIAPSIS":"546.003","BSTAR":"0.00006720700000","INCLINATION":"53.0557","CENTER_NAME":"EARTH","APOAPSIS":"548.432","MEAN_MOTION_DOT":"0.00000720","EPOCH":"2022-02-19T17:47:15.429984","ELEMENT_SET_NO":"999","ARG_OF_PERICENTER":"60.2728"},{"TLE_LINE2":"2 46723  53.0544  15.4752 0001757  57.8261 302.2898 15.06398896 75063","FILE":"3308775","RCS_SIZE":"LARGE","GP_ID":"196401491","PERIOD":"95.592","NORAD_CAT_ID":"46723","MEAN_ELEMENT_THEORY":"SGP4","REV_AT_EPOCH":"7506","SEMIMAJOR_AXIS":"6925.352","DECAY_DATE":null,"ECCENTRICITY":"0.00017570","MEAN_MOTION_DDOT":"0.0000000000000","OBJECT_TYPE":"PAYLOAD","SITE":"AFETR","REF_FRAME":"TEME","CLASSIFICATION_TYPE":"U","CENTER_NAME":"EARTH","APOAPSIS":"548.434","EPOCH":"2022-02-19T19:59:56.807232","MEAN_MOTION_DOT":"0.00000845","ELEMENT_SET_NO":"999","ARG_OF_PERICENTER":"57.8261","LAUNCH_DATE":"2020-10-18","TIME_SYSTEM":"UTC","EPHEMERIS_TYPE":"0","COUNTRY_CODE":"US","RA_OF_ASC_NODE":"15.4752","MEAN_ANOMALY":"302.2898","OBJECT_ID":"2020-073BF","OBJECT_NAME":"STARLINK-1826","TLE_LINE1":"1 46723U 20073BF  22050.83329638  .00000845  00000-0  75652-4 0  9991","MEAN_MOTION":"15.06398896","BSTAR":"0.00007565200000","INCLINATION":"53.0544","PERIAPSIS":"546.000"},{"ECCENTRICITY":"0.00015980","DECAY_DATE":null,"SEMIMAJOR_AXIS":"6925.370","REV_AT_EPOCH":"7400","REF_FRAME":"TEME","CLASSIFICATION_TYPE":"U","SITE":"AFETR","OBJECT_TYPE":"PAYLOAD","MEAN_MOTION_DDOT":"0.0000000000000","RCS_SIZE":"LARGE","FILE":"3308986","TLE_LINE2":"2 46725  53.0553  56.0336 0001598  61.4262 298.6888 15.06393035 74009","NORAD_CAT_ID":"46725","MEAN_ELEMENT_THEORY":"SGP4","PERIOD":"95.593","GP_ID":"196427970","RA_OF_ASC_NODE":"56.0336","COUNTRY_CODE":"US","EPHEMERIS_TYPE":"0","LAUNCH_DATE":"2020-10-18","TIME_SYSTEM":"UTC","PERIAPSIS":"546.128","BSTAR":"-0.00001699900000","INCLINATION":"53.0553","TLE_LINE1":"1 46725U 20073BH  22050.70429836 -.00000535  00000-0 -16999-4 0  9997","MEAN_MOTION":"15.06393035","OBJECT_NAME":"STARLINK-1828","MEAN_ANOMALY":"298.6888","OBJECT_ID":"2020-073BH","APOAPSIS":"548.342","CENTER_NAME":"EARTH","ELEMENT_SET_NO":"999","ARG_OF_PERICENTER":"61.4262","MEAN_MOTION_DOT":"-0.00000535","EPOCH":"2022-02-19T16:54:11.378304"},{"MEAN_ELEMENT_THEORY":"SGP4","NORAD_CAT_ID":"46726","GP_ID":"196428224","PERIOD":"95.592","FILE":"3308986","RCS_SIZE":"LARGE","TLE_LINE2":"2 46726  53.0562  40.0464 0001836 316.2186  43.8657 15.06406355 74246","SITE":"AFETR","CLASSIFICATION_TYPE":"U","REF_FRAME":"TEME","MEAN_MOTION_DDOT":"0.0000000000000","OBJECT_TYPE":"PAYLOAD","ECCENTRICITY":"0.00018360","DECAY_DATE":null,"REV_AT_EPOCH":"7424","SEMIMAJOR_AXIS":"6925.329","ARG_OF_PERICENTER":"316.2186","ELEMENT_SET_NO":"999","MEAN_MOTION_DOT":"0.00000798","EPOCH":"2022-02-19T22:17:16.835712","CENTER_NAME":"EARTH","APOAPSIS":"548.466","TLE_LINE1":"1 46726U 20073BJ  22050.92866708  .00000798  00000-0  72470-4 0  9990","MEAN_MOTION":"15.06406355","PERIAPSIS":"545.923","BSTAR":"0.00007247000000","INCLINATION":"53.0562","OBJECT_NAME":"STARLINK-1829","OBJECT_ID":"2020-073BJ","MEAN_ANOMALY":"43.8657","RA_OF_ASC_NODE":"40.0464","COUNTRY_CODE":"US","LAUNCH_DATE":"2020-10-18","TIME_SYSTEM":"UTC","EPHEMERIS_TYPE":"0"},{"LAUNCH_DATE":"2020-10-18","TIME_SYSTEM":"UTC","EPHEMERIS_TYPE":"0","RA_OF_ASC_NODE":"15.2248","COUNTRY_CODE":"US","OBJECT_NAME":"STARLINK-1830","MEAN_ANOMALY":"299.7933","OBJECT_ID":"2020-073BK","TLE_LINE1":"1 46727U 20073BK  22050.88489759  .00003849  00000-0  27708-3 0  9996","MEAN_MOTION":"15.06406788","PERIAPSIS":"545.880","INCLINATION":"53.0564","BSTAR":"0.00027708000000","CENTER_NAME":"EARTH","APOAPSIS":"548.506","MEAN_MOTION_DOT":"0.00003849","EPOCH":"2022-02-19T21:14:15.151776","ARG_OF_PERICENTER":"60.3244","ELEMENT_SET_NO":"999","REV_AT_EPOCH":"7459","SEMIMAJOR_AXIS":"6925.328","ECCENTRICITY":"0.00018960","DECAY_DATE":null,"MEAN_MOTION_DDOT":"0.0000000000000","OBJECT_TYPE":"PAYLOAD","SITE":"AFETR","REF_FRAME":"TEME","CLASSIFICATION_TYPE":"U","TLE_LINE2":"2 46727  53.0564  15.2248 0001896  60.3244 299.7933 15.06406788 74598","FILE":"3308986","RCS_SIZE":"LARGE","GP_ID":"196426975","PERIOD":"95.592","NORAD_CAT_ID":"46727","MEAN_ELEMENT_THEORY":"SGP4"},{"DECAY_DATE":null,"ECCENTRICITY":"0.00051050","SEMIMAJOR_AXIS":"6692.962","REV_AT_EPOCH":"7507","CLASSIFICATION_TYPE":"U","REF_FRAME":"TEME","SITE":"AFETR","OBJECT_TYPE":"PAYLOAD","MEAN_MOTION_DDOT":"0.0000000000000","RCS_SIZE":"LARGE","FILE":"3308480","TLE_LINE2":"2 46728  53.0461 335.8377 0005105 106.3121 253.8464 15.85532897 75073","NORAD_CAT_ID":"46728","MEAN_ELEMENT_THEORY":"SGP4","PERIOD":"90.821","GP_ID":"196390914","COUNTRY_CODE":"US","RA_OF_ASC_NODE":"335.8377","EPHEMERIS_TYPE":"0","TIME_SYSTEM":"UTC","LAUNCH_DATE":"2020-10-18","INCLINATION":"53.0461","BSTAR":"0.00069162000000","PERIAPSIS":"311.410","TLE_LINE1":"1 46728U 20073BL  22050.15941057  .00172885  00000-0  69162-3 0  9998","MEAN_MOTION":"15.85532897","OBJECT_ID":"2020-073BL","MEAN_ANOMALY":"253.8464","OBJECT_NAME":"STARLINK-1831","APOAPSIS":"318.243","CENTER_NAME":"EARTH","ELEMENT_SET_NO":"999","ARG_OF_PERICENTER":"106.3121","EPOCH":"2022-02-19T03:49:33.073248","MEAN_MOTION_DOT":"0.00172885"},{"NORAD_CAT_ID":"46740","MEAN_ELEMENT_THEORY":"SGP4","GP_ID":"196427971","PERIOD":"95.592","FILE":"3308986","RCS_SIZE":"LARGE","TLE_LINE2":"2 46740  53.0529 125.1191 0001566  66.9935 293.1219 15.06404489 73719","SITE":"AFETR","REF_FRAME":"TEME","CLASSIFICATION_TYPE":"U","MEAN_MOTION_DDOT":"0.0000000000000","OBJECT_TYPE":"PAYLOAD","DECAY_DATE":null,"ECCENTRICITY":"0.00015660","REV_AT_EPOCH":"7371","SEMIMAJOR_AXIS":"6925.335","ELEMENT_SET_NO":"999","ARG_OF_PERICENTER":"66.9935","EPOCH":"2022-02-19T21:52:43.847040","MEAN_MOTION_DOT":"0.00001268","CENTER_NAME":"EARTH","APOAPSIS":"548.284","MEAN_MOTION":"15.06404489","TLE_LINE1":"1 46740U 20074B   22050.91161860  .00001268  00000-0  10403-3 0  9993","INCLINATION":"53.0529","BSTAR":"0.00010403000000","PERIAPSIS":"546.115","MEAN_ANOMALY":"293.1219","OBJECT_ID":"2020-074B","OBJECT_NAME":"STARLINK-1848","COUNTRY_CODE":"US","RA_OF_ASC_NODE":"125.1191","TIME_SYSTEM":"UTC","LAUNCH_DATE":"2020-10-24","EPHEMERIS_TYPE":"0"},{"ARG_OF_PERICENTER":"60.7176","ELEMENT_SET_NO":"999","MEAN_MOTION_DOT":"0.00004280","EPOCH":"2022-02-19T15:55:07.875840","CENTER_NAME":"EARTH","APOAPSIS":"548.316","MEAN_MOTION":"15.06410879","TLE_LINE1":"1 46741U 20074C   22050.66328560  .00004280  00000-0  30597-3 0  9991","PERIAPSIS":"546.044","INCLINATION":"53.0528","BSTAR":"0.00030597000000","OBJECT_NAME":"STARLINK-1865","OBJECT_ID":"2020-074C","MEAN_ANOMALY":"299.3976","RA_OF_ASC_NODE":"121.2263","COUNTRY_CODE":"US","TIME_SYSTEM":"UTC","LAUNCH_DATE":"2020-10-24","EPHEMERIS_TYPE":"0","MEAN_ELEMENT_THEORY":"SGP4","NORAD_CAT_ID":"46741","GP_ID":"196428225","PERIOD":"95.591","FILE":"3308986","RCS_SIZE":"LARGE","TLE_LINE2":"2 46741  53.0528 121.2263 0001640  60.7176 299.3976 15.06410879 73750","SITE":"AFETR","CLASSIFICATION_TYPE":"U","REF_FRAME":"TEME","MEAN_MOTION_DDOT":"0.0000000000000","OBJECT_TYPE":"PAYLOAD","ECCENTRICITY":"0.00016400","DECAY_DATE":null,"REV_AT_EPOCH":"7375","SEMIMAJOR_AXIS":"6925.315"}];
